COSMOS 2433 (720)       
1 32275U 07052A   26059.98637234 -.00000049  00000+0  00000+0 0  9999
2 32275  65.6370 319.5772 0002353 271.3066  88.7182  2.13103887142756
COSMOS 2432 (719)       
1 32276U 07052B   26060.22440509 -.00000050  00000+0  00000+0 0  9998
2 32276  65.6527 319.6949 0010691 329.4974 157.3757  2.13103055142786
COSMOS 2434 (721)       
1 32393U 07065A   26059.66737977 -.00000009  00000+0  00000+0 0  9990
2 32393  64.3188 195.5729 0003951  70.7248 294.9025  2.13101172141461
COSMOS 2436 (723)       
1 32395U 07065C   26060.44697113 -.00000013  00000+0  00000+0 0  9992
2 32395  64.3273 195.6177 0017547   7.6529   8.7984  2.13099991141430
COSMOS 2456 (730)       
1 36111U 09070A   26060.36102538  .00000035  00000+0  00000+0 0  9996
2 36111  64.9467  74.6496 0006223 304.7451  30.5541  2.13103410126128
COSMOS 2457 (733)       
1 36112U 09070B   26060.42035186  .00000034  00000+0  00000+0 0  9997
2 36112  64.9320  74.4935 0002228 196.4022 312.8150  2.13100899126135
COSMOS 2460 (732)       
1 36402U 10007C   26060.37150454 -.00000046  00000+0  00000+0 0  9995
2 36402  65.4815 318.1174 0001778  10.4214 102.0361  2.13105990124433
COSMOS 2476 (744)       
1 37867U 11064A   26060.50858038  .00000037  00000+0  00000+0 0  9992
2 37867  65.2072  76.5060 0025199 241.1119 115.7338  2.13103602111463
COSMOS 2477 (745)       
1 37868U 11064B   26060.43696721  .00000038  00000+0  00000+0 0  9995
2 37868  65.2136  76.5868 0022294 242.6449 239.9292  2.13102701111463
COSMOS 2475 (743)       
1 37869U 11064C   26060.36904505  .00000038  00000+0  00000+0 0  9990
2 37869  65.2203  76.6098 0028072 254.0402 132.0097  2.13101533111470
COSMOS 2485 (747)       
1 39155U 13019A   26060.44975302  .00000039  00000+0  00000+0 0  9995
2 39155  65.3577  77.2196 0025514 236.7123 123.0984  2.13102956 99982
COSMOS 2492 (754)       
1 39620U 14012A   26059.93931605 -.00000046  00000+0  00000+0 0  9995
2 39620  65.3598 317.6175 0013311 325.5987  34.3692  2.13103126 92935
COSMOS 2500 (755)       
1 40001U 14032A   26060.11047194 -.00000045  00000+0  00000+0 0  9994
2 40001  65.2949 317.3676 0005259 204.8536 155.1757  2.13105796 91155
COSMOS 2501 (702K)      
1 40315U 14075A   26060.37097795 -.00000015  00000+0  00000+0 0  9996
2 40315  63.6172 194.1013 0020702 205.6418 154.2159  2.13101119 87557
COSMOS 2514 (751)       
1 41330U 16008A   26059.88614037 -.00000044  00000+0  00000+0 0  9992
2 41330  65.0848 316.7259 0009196 210.1787 149.8230  2.13102585 78311
COSMOS 2522 (752)       
1 42939U 17055A   26059.72403422 -.00000010  00000+0  00000+0 0  9991
2 42939  64.0795 195.5727 0007072 226.3885 133.5140  2.13101626 65668
COSMOS 2527 (756)       
1 43508U 18053A   26060.15457887  .00000041  00000+0  00000+0 0  9999
2 43508  65.5160  77.5103 0009630 244.8081 115.1487  2.13102047 59970
COSMOS 2529 (757)       
1 43687U 18086A   26058.37448306  .00000008  00000+0  00000+0 0  9993
2 43687  64.2955 196.2992 0007959 253.0448 106.8346  2.13101880 56941
COSMOS 2534 (758)       
1 44299U 19030A   26059.72043316 -.00000008  00000+0  00000+0 0  9996
2 44299  64.3688 196.2655 0009610 280.7620 166.1530  2.13102114 52611
COSMOS 2544 (759)       
1 44850U 19088A   26060.09921565  .00000041  00000+0  00000+0 0  9991
2 44850  65.5037  77.3374 0015747 259.2375 100.6416  2.13101810 48419
COSMOS 2545 (760)       
1 45358U 20018A   26055.13290572 -.00000047  00000+0  00000+0 0  9993
2 45358  64.4229 316.3952 0008661 251.9262 108.0301  2.13102520 46257
COSMOS 2547 (705K)      
1 46805U 20075A   26060.48326888 -.00000013  00000+0  00000+0 0  9991
2 46805  64.6000 196.0666 0006642 229.2536 130.6482  2.13100066 41617
COSMOS 2557 (706K)      
1 52984U 22075A   26060.17911170 -.00000049  00000+0  00000+0 0  9997
2 52984  64.3612 318.2927 0011822 283.1445  76.7771  2.13101670 28416
COSMOS 2559 (707K)      
1 54031U 22130A   26059.99848280 -.00000049  00000+0  00000+0 0  9993
2 54031  64.3338 318.3857 0010601 182.1671 177.8809  2.13101169 26384
COSMOS 2564 (761)       
1 54377U 22161A   26060.31127277 -.00000012  00000+0  00000+0 0  9994
2 54377  64.7417 196.2893 0009345 209.1479 150.7597  2.13101880 25339
COSMOS 2569 (703K)      
1 57517U 23114A   26060.32428571  .00000038  00000+0  00000+0 0  9991
2 57517  65.2399  76.2569 0012874 291.4204  68.4967  2.13103901 19965
COSMOS 2584 (704K)      
1 63130U 25042A   26059.74188024  .00000039  00000+0  00000+0 0  9992
2 63130  65.0213  76.4877 0007823 236.2440 123.7373  2.13103267  7730
COSMOS 2596 (708K)      
1 65590U 25206B   26060.22038066 -.00000049  00000+0  00000+0 0  9993
2 65590  64.6960 318.7463 0012932 315.1569 169.5039  2.13100085  3610
